[{"OBJECT_NAME":"GAOFEN-9 05","OBJECT_ID":"2020-058A","EPOCH":"2026-03-10T00:01:50.876256","MEAN_MOTION":15.30293976,"ECCENTRICITY":0.0010522,"INCLINATION":97.2228,"RA_OF_ASC_NODE":111.963,"ARG_OF_PERICENTER":91.0204,"MEAN_ANOMALY":269.2242,"EPHEMERIS_TYPE":0,"CLASSIFICATION_TYPE":"U","NORAD_CAT_ID":46232,"ELEMENT_SET_NO":999,"REV_AT_EPOCH":30843,"BSTAR":0.00025120304,"MEAN_MOTION_DOT":7.299e-5,"MEAN_MOTION_DDOT":0},{"OBJECT_NAME":"STARLINK-35815","OBJECT_ID":"2025-268W","EPOCH":"2026-03-08T03:31:45.128640","MEAN_MOTION":15.27625122,"ECCENTRICITY":0.00012658,"INCLINATION":42.9995,"RA_OF_ASC_NODE":355.788,"ARG_OF_PERICENTER":285.0834,"MEAN_ANOMALY":74.9878,"EPHEMERIS_TYPE":0,"CLASSIFICATION_TYPE":"U","NORAD_CAT_ID":66577,"ELEMENT_SET_NO":999,"REV_AT_EPOCH":1772,"BSTAR":0.0018510755,"MEAN_MOTION_DOT":0.000511,"MEAN_MOTION_DDOT":0}]
